{"fetched_at":"2026-04-27T10:18:45Z","count":15360,"tles":[{"name":"ORBCOMM FM110","line1":"1 41182U 15081D   26117.08047892  .00000675  00000+0  17929-3 0  9994","line2":"2 41182  47.0018 243.0748 0003577 207.9353 152.1342 14.58821390550163","category":"Other"},{"name":"ORBCOMM FM114","line1":"1 41179U 15081A   26116.61227020  .00000548  00000+0  15226-3 0  9998","line2":"2 41179  47.0045 245.8327 0002524 305.7737  54.2914 14.58799723550224","category":"Other"},{"name":"ORBCOMM FM118","line1":"1 41183U 15081E   26117.04668551  .00000678  00000+0  17984-3 0  9996","line2":"2 41183  47.0038 243.5600 0003171 173.6548 186.4378 14.58819005550263","category":"Other"},{"name":"ORBCOMM FM112","line1":"1 41184U 15081F   26117.11809708  .00000457  00000+0  13304-3 0  9993","line2":"2 41184  46.9974 151.7003 0002682 306.0723  53.9914 14.58814757551490","category":"Other"},{"name":"ORBCOMM FM108","line1":"1 41187U 15081J   26117.19509778  .00000689  00000+0  18230-3 0  9998","line2":"2 41187  47.0053  63.2695 0003256 316.2222  43.8405 14.58792277552634","category":"Other"},{"name":"ORBCOMM FM116","line1":"1 41189U 15081L   26117.14139184  .00000521  00000+0  14659-3 0  9991","line2":"2 41189  47.0009 151.9643 0002159 222.7295 137.3423 14.58812000551485","category":"Other"},{"name":"ORBCOMM FM109","line1":"1 40086U 14040A   26117.00559333  .00000450  00000+0  13155-3 0  9998","line2":"2 40086  47.0044 333.4592 0001742 334.0967  25.9831 14.58789600626879","category":"Other"},{"name":"ORBCOMM FM27","line1":"1 25481U 98053G   26116.53830233  .00000933  00000+0  34516-3 0  9994","line2":"2 25481  45.0048 220.6485 0001428 232.4441 127.6278 14.39041320442791","category":"Other"},{"name":"ORBCOMM FM20","line1":"1 25416U 98046D   26117.08976574  .00000566  00000+0  23218-3 0  9993","line2":"2 25416  44.9925 133.7885 0001782 284.3473  75.7177 14.37986711449432","category":"Other"},{"name":"ORBCOMM FM04","line1":"1 25159U 98007C   26117.11259128  .00001007  00000+0  39112-3 0  9998","line2":"2 25159 107.9614  64.3156 0039284  54.1263 306.3516 14.35633438469265","category":"Other"},{"name":"ORBCOMM FM19","line1":"1 25415U 98046C   26117.06539226  .00000903  00000+0  33307-3 0  9994","line2":"2 25415  44.9929 126.5407 0002364   6.0271  32.2824 14.39390939449415","category":"Other"},{"name":"ORBCOMM FM06","line1":"1 25118U 97084G   26117.22842616  .00001456  00000+0  43225-3 0  9997","line2":"2 25118  45.0141 298.0056 0000518  72.1079  97.3998 14.47432609487008","category":"Other"}]}