[{"OBJECT_NAME":"ORBCOMM FM06","OBJECT_ID":"1997-084G","EPOCH":"2026-04-27T05:28:56.020224","MEAN_MOTION":14.47432609,"ECCENTRICITY":5.18e-5,"INCLINATION":45.0141,"RA_OF_ASC_NODE":298.0056,"ARG_OF_PERICENTER":72.1079,"MEAN_ANOMALY":97.3998,"EPHEMERIS_TYPE":0,"CLASSIFICATION_TYPE":"U","NORAD_CAT_ID":25118,"ELEMENT_SET_NO":999,"REV_AT_EPOCH":48700,"BSTAR":0.00043225,"MEAN_MOTION_DOT":1.456e-5,"MEAN_MOTION_DDOT":0},{"OBJECT_NAME":"ORBCOMM FM04","OBJECT_ID":"1998-007C","EPOCH":"2026-04-27T02:42:07.886592","MEAN_MOTION":14.35633438,"ECCENTRICITY":0.0039284,"INCLINATION":107.9614,"RA_OF_ASC_NODE":64.3156,"ARG_OF_PERICENTER":54.1263,"MEAN_ANOMALY":306.3516,"EPHEMERIS_TYPE":0,"CLASSIFICATION_TYPE":"U","NORAD_CAT_ID":25159,"ELEMENT_SET_NO":999,"REV_AT_EPOCH":46926,"BSTAR":0.00039112,"MEAN_MOTION_DOT":1.007e-5,"MEAN_MOTION_DDOT":0},{"OBJECT_NAME":"ORBCOMM FM19","OBJECT_ID":"1998-046C","EPOCH":"2026-04-27T01:34:09.891264","MEAN_MOTION":14.39390939,"ECCENTRICITY":0.0002364,"INCLINATION":44.9929,"RA_OF_ASC_NODE":126.5407,"ARG_OF_PERICENTER":6.0271,"MEAN_ANOMALY":32.2824,"EPHEMERIS_TYPE":0,"CLASSIFICATION_TYPE":"U","NORAD_CAT_ID":25415,"ELEMENT_SET_NO":999,"REV_AT_EPOCH":44941,"BSTAR":0.00033307,"MEAN_MOTION_DOT":9.03e-6,"MEAN_MOTION_DDOT":0},{"OBJECT_NAME":"ORBCOMM FM20","OBJECT_ID":"1998-046D","EPOCH":"2026-04-27T02:09:15.759936","MEAN_MOTION":14.37986711,"ECCENTRICITY":0.0001782,"INCLINATION":44.9925,"RA_OF_ASC_NODE":133.7885,"ARG_OF_PERICENTER":284.3473,"MEAN_ANOMALY":75.7177,"EPHEMERIS_TYPE":0,"CLASSIFICATION_TYPE":"U","NORAD_CAT_ID":25416,"ELEMENT_SET_NO":999,"REV_AT_EPOCH":44943,"BSTAR":0.00023218,"MEAN_MOTION_DOT":5.66e-6,"MEAN_MOTION_DDOT":0},{"OBJECT_NAME":"ORBCOMM FM27","OBJECT_ID":"1998-053G","EPOCH":"2026-04-26T12:55:09.321312","MEAN_MOTION":14.3904132,"ECCENTRICITY":0.00014282,"INCLINATION":45.0048,"RA_OF_ASC_NODE":220.6485,"ARG_OF_PERICENTER":232.4441,"MEAN_ANOMALY":127.6278,"EPHEMERIS_TYPE":0,"CLASSIFICATION_TYPE":"U","NORAD_CAT_ID":25481,"ELEMENT_SET_NO":999,"REV_AT_EPOCH":44279,"BSTAR":0.00034515814,"MEAN_MOTION_DOT":9.33e-6,"MEAN_MOTION_DDOT":0},{"OBJECT_NAME":"ORBCOMM FM109","OBJECT_ID":"2014-040A","EPOCH":"2026-04-27T00:08:03.263712","MEAN_MOTION":14.587896,"ECCENTRICITY":0.0001742,"INCLINATION":47.0044,"RA_OF_ASC_NODE":333.4592,"ARG_OF_PERICENTER":334.0967,"MEAN_ANOMALY":25.9831,"EPHEMERIS_TYPE":0,"CLASSIFICATION_TYPE":"U","NORAD_CAT_ID":40086,"ELEMENT_SET_NO":999,"REV_AT_EPOCH":62687,"BSTAR":0.00013155,"MEAN_MOTION_DOT":4.5e-6,"MEAN_MOTION_DDOT":0},{"OBJECT_NAME":"ORBCOMM FM114","OBJECT_ID":"2015-081A","EPOCH":"2026-04-26T14:41:40.145280","MEAN_MOTION":14.58799723,"ECCENTRICITY":0.0002524,"INCLINATION":47.0045,"RA_OF_ASC_NODE":245.8327,"ARG_OF_PERICENTER":305.7737,"MEAN_ANOMALY":54.2914,"EPHEMERIS_TYPE":0,"CLASSIFICATION_TYPE":"U","NORAD_CAT_ID":41179,"ELEMENT_SET_NO":999,"REV_AT_EPOCH":55022,"BSTAR":0.00015226,"MEAN_MOTION_DOT":5.48e-6,"MEAN_MOTION_DDOT":0},{"OBJECT_NAME":"ORBCOMM FM110","OBJECT_ID":"2015-081D","EPOCH":"2026-04-27T01:55:53.378688","MEAN_MOTION":14.5882139,"ECCENTRICITY":0.0003577,"INCLINATION":47.0018,"RA_OF_ASC_NODE":243.0748,"ARG_OF_PERICENTER":207.9353,"MEAN_ANOMALY":152.1342,"EPHEMERIS_TYPE":0,"CLASSIFICATION_TYPE":"U","NORAD_CAT_ID":41182,"ELEMENT_SET_NO":999,"REV_AT_EPOCH":55016,"BSTAR":0.00017929,"MEAN_MOTION_DOT":6.75e-6,"MEAN_MOTION_DDOT":0},{"OBJECT_NAME":"ORBCOMM FM118","OBJECT_ID":"2015-081E","EPOCH":"2026-04-27T01:07:13.628064","MEAN_MOTION":14.58819005,"ECCENTRICITY":0.0003171,"INCLINATION":47.0038,"RA_OF_ASC_NODE":243.56,"ARG_OF_PERICENTER":173.6548,"MEAN_ANOMALY":186.4378,"EPHEMERIS_TYPE":0,"CLASSIFICATION_TYPE":"U","NORAD_CAT_ID":41183,"ELEMENT_SET_NO":999,"REV_AT_EPOCH":55026,"BSTAR":0.00017984,"MEAN_MOTION_DOT":6.78e-6,"MEAN_MOTION_DDOT":0},{"OBJECT_NAME":"ORBCOMM FM112","OBJECT_ID":"2015-081F","EPOCH":"2026-04-27T02:50:03.587712","MEAN_MOTION":14.58814757,"ECCENTRICITY":0.0002682,"INCLINATION":46.9974,"RA_OF_ASC_NODE":151.7003,"ARG_OF_PERICENTER":306.0723,"MEAN_ANOMALY":53.9914,"EPHEMERIS_TYPE":0,"CLASSIFICATION_TYPE":"U","NORAD_CAT_ID":41184,"ELEMENT_SET_NO":999,"REV_AT_EPOCH":55149,"BSTAR":0.00013304,"MEAN_MOTION_DOT":4.57e-6,"MEAN_MOTION_DDOT":0},{"OBJECT_NAME":"ORBCOMM FM108","OBJECT_ID":"2015-081J","EPOCH":"2026-04-27T04:40:56.448192","MEAN_MOTION":14.58792277,"ECCENTRICITY":0.0003256,"INCLINATION":47.0053,"RA_OF_ASC_NODE":63.2695,"ARG_OF_PERICENTER":316.2222,"MEAN_ANOMALY":43.8405,"EPHEMERIS_TYPE":0,"CLASSIFICATION_TYPE":"U","NORAD_CAT_ID":41187,"ELEMENT_SET_NO":999,"REV_AT_EPOCH":55263,"BSTAR":0.0001823,"MEAN_MOTION_DOT":6.89e-6,"MEAN_MOTION_DDOT":0},{"OBJECT_NAME":"ORBCOMM FM116","OBJECT_ID":"2015-081L","EPOCH":"2026-04-27T03:23:36.254976","MEAN_MOTION":14.58812,"ECCENTRICITY":0.0002159,"INCLINATION":47.0009,"RA_OF_ASC_NODE":151.9643,"ARG_OF_PERICENTER":222.7295,"MEAN_ANOMALY":137.3423,"EPHEMERIS_TYPE":0,"CLASSIFICATION_TYPE":"U","NORAD_CAT_ID":41189,"ELEMENT_SET_NO":999,"REV_AT_EPOCH":55148,"BSTAR":0.00014659,"MEAN_MOTION_DOT":5.21e-6,"MEAN_MOTION_DDOT":0}]
